[{"OBJECT_NAME":"ONEWEB-0645","OBJECT_ID":"2023-029P","EPOCH":"2025-08-25T09:41:52.389312","MEAN_MOTION":13.19724861,"ECCENTRICITY":0.00018495,"INCLINATION":87.9258,"RA_OF_ASC_NODE":3.7926,"ARG_OF_PERICENTER":87.7358,"MEAN_ANOMALY":272.3987,"EPHEMERIS_TYPE":0,"CLASSIFICATION_TYPE":"U","NORAD_CAT_ID":55809,"ELEMENT_SET_NO":999,"REV_AT_EPOCH":11989,"BSTAR":-8.762904e-6,"MEAN_MOTION_DOT":9.0e-8,"MEAN_MOTION_DDOT":0},{"OBJECT_NAME":"ONEWEB-0646","OBJECT_ID":"2023-029Q","EPOCH":"2025-08-25T08:44:42.314496","MEAN_MOTION":13.19255723,"ECCENTRICITY":0.00015764,"INCLINATION":87.9258,"RA_OF_ASC_NODE":3.7949,"ARG_OF_PERICENTER":96.2499,"MEAN_ANOMALY":263.8813,"EPHEMERIS_TYPE":0,"CLASSIFICATION_TYPE":"U","NORAD_CAT_ID":55810,"ELEMENT_SET_NO":999,"REV_AT_EPOCH":11987,"BSTAR":0.00021176742,"MEAN_MOTION_DOT":9.7e-7,"MEAN_MOTION_DDOT":0},{"OBJECT_NAME":"ONEWEB-0648","OBJECT_ID":"2023-029R","EPOCH":"2025-08-25T07:38:54.263040","MEAN_MOTION":13.14504094,"ECCENTRICITY":0.00015784,"INCLINATION":87.9085,"RA_OF_ASC_NODE":348.6019,"ARG_OF_PERICENTER":67.7918,"MEAN_ANOMALY":292.3379,"EPHEMERIS_TYPE":0,"CLASSIFICATION_TYPE":"U","NORAD_CAT_ID":55811,"ELEMENT_SET_NO":999,"REV_AT_EPOCH":12052,"BSTAR":0.00024820853,"MEAN_MOTION_DOT":1.05e-6,"MEAN_MOTION_DDOT":0},{"OBJECT_NAME":"ONEWEB-0649","OBJECT_ID":"2023-029S","EPOCH":"2025-08-25T09:31:38.088768","MEAN_MOTION":13.19725226,"ECCENTRICITY":0.00016102,"INCLINATION":87.9271,"RA_OF_ASC_NODE":3.7815,"ARG_OF_PERICENTER":82.6296,"MEAN_ANOMALY":277.502,"EPHEMERIS_TYPE":0,"CLASSIFICATION_TYPE":"U","NORAD_CAT_ID":55812,"ELEMENT_SET_NO":999,"REV_AT_EPOCH":11991,"BSTAR":-7.4798905e-5,"MEAN_MOTION_DOT":-1.7e-7,"MEAN_MOTION_DDOT":0},{"OBJECT_NAME":"ONEWEB-0650","OBJECT_ID":"2023-029T","EPOCH":"2025-08-25T09:24:48.807648","MEAN_MOTION":13.19725524,"ECCENTRICITY":0.00016474,"INCLINATION":87.9267,"RA_OF_ASC_NODE":3.7934,"ARG_OF_PERICENTER":94.7399,"MEAN_ANOMALY":265.3922,"EPHEMERIS_TYPE":0,"CLASSIFICATION_TYPE":"U","NORAD_CAT_ID":55813,"ELEMENT_SET_NO":999,"REV_AT_EPOCH":11988,"BSTAR":0.00027110965,"MEAN_MOTION_DOT":1.21e-6,"MEAN_MOTION_DDOT":0},{"OBJECT_NAME":"ONEWEB-0652","OBJECT_ID":"2023-029U","EPOCH":"2025-08-25T14:29:55.870368","MEAN_MOTION":13.14502603,"ECCENTRICITY":0.00019558,"INCLINATION":87.9094,"RA_OF_ASC_NODE":348.5584,"ARG_OF_PERICENTER":103.3286,"MEAN_ANOMALY":256.8062,"EPHEMERIS_TYPE":0,"CLASSIFICATION_TYPE":"U","NORAD_CAT_ID":55814,"ELEMENT_SET_NO":999,"REV_AT_EPOCH":12053,"BSTAR":0.00059473435,"MEAN_MOTION_DOT":2.33e-6,"MEAN_MOTION_DDOT":0},{"OBJECT_NAME":"ONEWEB-0653","OBJECT_ID":"2023-029V","EPOCH":"2025-08-25T06:48:39.913920","MEAN_MOTION":13.14508685,"ECCENTRICITY":0.00021174,"INCLINATION":87.9093,"RA_OF_ASC_NODE":348.6111,"ARG_OF_PERICENTER":96.2369,"MEAN_ANOMALY":263.9002,"EPHEMERIS_TYPE":0,"CLASSIFICATION_TYPE":"U","NORAD_CAT_ID":55815,"ELEMENT_SET_NO":999,"REV_AT_EPOCH":12052,"BSTAR":-0.0026804938,"MEAN_MOTION_DOT":-9.81e-6,"MEAN_MOTION_DDOT":0},{"OBJECT_NAME":"ONEWEB-0654","OBJECT_ID":"2023-029W","EPOCH":"2025-08-25T14:00:14.047488","MEAN_MOTION":13.14504467,"ECCENTRICITY":0.00022016,"INCLINATION":87.9089,"RA_OF_ASC_NODE":348.55,"ARG_OF_PERICENTER":105.7803,"MEAN_ANOMALY":254.357,"EPHEMERIS_TYPE":0,"CLASSIFICATION_TYPE":"U","NORAD_CAT_ID":55816,"ELEMENT_SET_NO":999,"REV_AT_EPOCH":12058,"BSTAR":-6.5427154e-5,"MEAN_MOTION_DOT":-1.1e-7,"MEAN_MOTION_DDOT":0},{"OBJECT_NAME":"ONEWEB-0656","OBJECT_ID":"2023-029X","EPOCH":"2025-08-25T14:25:33.766464","MEAN_MOTION":13.20771626,"ECCENTRICITY":0.00023312,"INCLINATION":87.9302,"RA_OF_ASC_NODE":333.3337,"ARG_OF_PERICENTER":105.9761,"MEAN_ANOMALY":254.1629,"EPHEMERIS_TYPE":0,"CLASSIFICATION_TYPE":"U","NORAD_CAT_ID":55817,"ELEMENT_SET_NO":999,"REV_AT_EPOCH":12213,"BSTAR":0.00015424859,"MEAN_MOTION_DOT":7.6e-7,"MEAN_MOTION_DDOT":0},{"OBJECT_NAME":"ONEWEB-0657","OBJECT_ID":"2023-029Y","EPOCH":"2025-08-25T09:17:59.047008","MEAN_MOTION":13.19721958,"ECCENTRICITY":0.00018366,"INCLINATION":87.9268,"RA_OF_ASC_NODE":3.7991,"ARG_OF_PERICENTER":123.7004,"MEAN_ANOMALY":236.4304,"EPHEMERIS_TYPE":0,"CLASSIFICATION_TYPE":"U","NORAD_CAT_ID":55818,"ELEMENT_SET_NO":999,"REV_AT_EPOCH":11989,"BSTAR":0.00032634906,"MEAN_MOTION_DOT":1.44e-6,"MEAN_MOTION_DDOT":0},{"OBJECT_NAME":"ONEWEB-0658","OBJECT_ID":"2023-029Z","EPOCH":"2025-08-25T07:21:59.357664","MEAN_MOTION":13.19725249,"ECCENTRICITY":0.00014025,"INCLINATION":87.9279,"RA_OF_ASC_NODE":3.7505,"ARG_OF_PERICENTER":88.8249,"MEAN_ANOMALY":271.3045,"EPHEMERIS_TYPE":0,"CLASSIFICATION_TYPE":"U","NORAD_CAT_ID":55819,"ELEMENT_SET_NO":999,"REV_AT_EPOCH":11989,"BSTAR":0.00028554948,"MEAN_MOTION_DOT":1.27e-6,"MEAN_MOTION_DDOT":0},{"OBJECT_NAME":"ONEWEB-0660","OBJECT_ID":"2023-029AA","EPOCH":"2025-08-25T07:59:26.899008","MEAN_MOTION":13.14504094,"ECCENTRICITY":0.00019132,"INCLINATION":87.9096,"RA_OF_ASC_NODE":348.5714,"ARG_OF_PERICENTER":89.2347,"MEAN_ANOMALY":270.9002,"EPHEMERIS_TYPE":0,"CLASSIFICATION_TYPE":"U","NORAD_CAT_ID":55820,"ELEMENT_SET_NO":999,"REV_AT_EPOCH":12053,"BSTAR":-0.00015098074,"MEAN_MOTION_DOT":-4.3e-7,"MEAN_MOTION_DDOT":0},{"OBJECT_NAME":"ONEWEB-0661","OBJECT_ID":"2023-029AB","EPOCH":"2025-08-25T14:18:30.981024","MEAN_MOTION":13.14502479,"ECCENTRICITY":0.00020134,"INCLINATION":87.9096,"RA_OF_ASC_NODE":348.5911,"ARG_OF_PERICENTER":89.53,"MEAN_ANOMALY":270.606,"EPHEMERIS_TYPE":0,"CLASSIFICATION_TYPE":"U","NORAD_CAT_ID":55821,"ELEMENT_SET_NO":999,"REV_AT_EPOCH":12055,"BSTAR":0.00045690108,"MEAN_MOTION_DOT":1.82e-6,"MEAN_MOTION_DDOT":0},{"OBJECT_NAME":"ONEWEB-0662","OBJECT_ID":"2023-029AC","EPOCH":"2025-08-25T07:50:18.386016","MEAN_MOTION":13.14502419,"ECCENTRICITY":0.00018016,"INCLINATION":87.9097,"RA_OF_ASC_NODE":348.6511,"ARG_OF_PERICENTER":88.3688,"MEAN_ANOMALY":271.7648,"EPHEMERIS_TYPE":0,"CLASSIFICATION_TYPE":"U","NORAD_CAT_ID":55822,"ELEMENT_SET_NO":999,"REV_AT_EPOCH":12056,"BSTAR":-0.0001554323,"MEAN_MOTION_DOT":-4.5e-7,"MEAN_MOTION_DDOT":0},{"OBJECT_NAME":"ONEWEB-0663","OBJECT_ID":"2023-029AD","EPOCH":"2025-08-25T13:53:03.347808","MEAN_MOTION":13.20844006,"ECCENTRICITY":0.00017807,"INCLINATION":87.9313,"RA_OF_ASC_NODE":333.3948,"ARG_OF_PERICENTER":85.6774,"MEAN_ANOMALY":274.4563,"EPHEMERIS_TYPE":0,"CLASSIFICATION_TYPE":"U","NORAD_CAT_ID":55823,"ELEMENT_SET_NO":999,"REV_AT_EPOCH":12212,"BSTAR":-1.2548312e-5,"MEAN_MOTION_DOT":8.0e-8,"MEAN_MOTION_DDOT":0},{"OBJECT_NAME":"ONEWEB-0664","OBJECT_ID":"2023-029AE","EPOCH":"2025-08-25T06:51:00.564480","MEAN_MOTION":13.20774032,"ECCENTRICITY":0.00023091,"INCLINATION":87.9305,"RA_OF_ASC_NODE":333.4742,"ARG_OF_PERICENTER":95.0502,"MEAN_ANOMALY":265.0894,"EPHEMERIS_TYPE":0,"CLASSIFICATION_TYPE":"U","NORAD_CAT_ID":55824,"ELEMENT_SET_NO":999,"REV_AT_EPOCH":12208,"BSTAR":0.00021802227,"MEAN_MOTION_DOT":1.02e-6,"MEAN_MOTION_DDOT":0},{"OBJECT_NAME":"ONEWEB-0665","OBJECT_ID":"2023-029AF","EPOCH":"2025-08-25T06:55:29.915616","MEAN_MOTION":13.14502013,"ECCENTRICITY":0.00018084,"INCLINATION":87.9096,"RA_OF_ASC_NODE":348.6271,"ARG_OF_PERICENTER":91.234,"MEAN_ANOMALY":268.8997,"EPHEMERIS_TYPE":0,"CLASSIFICATION_TYPE":"U","NORAD_CAT_ID":55825,"ELEMENT_SET_NO":999,"REV_AT_EPOCH":12053,"BSTAR":0.00056309654,"MEAN_MOTION_DOT":2.22e-6,"MEAN_MOTION_DDOT":0},{"OBJECT_NAME":"ONEWEB-0666","OBJECT_ID":"2023-029AG","EPOCH":"2025-08-25T06:41:55.437504","MEAN_MOTION":13.20771279,"ECCENTRICITY":0.00020415,"INCLINATION":87.9304,"RA_OF_ASC_NODE":333.4638,"ARG_OF_PERICENTER":121.5119,"MEAN_ANOMALY":238.6214,"EPHEMERIS_TYPE":0,"CLASSIFICATION_TYPE":"U","NORAD_CAT_ID":55826,"ELEMENT_SET_NO":999,"REV_AT_EPOCH":12209,"BSTAR":0.00025621732,"MEAN_MOTION_DOT":1.17e-6,"MEAN_MOTION_DDOT":0},{"OBJECT_NAME":"ONEWEB-0667","OBJECT_ID":"2023-029AH","EPOCH":"2025-08-25T13:49:11.527104","MEAN_MOTION":13.20773957,"ECCENTRICITY":0.00019165,"INCLINATION":87.93,"RA_OF_ASC_NODE":333.3329,"ARG_OF_PERICENTER":93.5335,"MEAN_ANOMALY":266.6017,"EPHEMERIS_TYPE":0,"CLASSIFICATION_TYPE":"U","NORAD_CAT_ID":55827,"ELEMENT_SET_NO":999,"REV_AT_EPOCH":12212,"BSTAR":9.6635785e-5,"MEAN_MOTION_DOT":5.2e-7,"MEAN_MOTION_DDOT":0},{"OBJECT_NAME":"ONEWEB-0669","OBJECT_ID":"2023-029AJ","EPOCH":"2025-08-25T06:26:01.953024","MEAN_MOTION":13.20773136,"ECCENTRICITY":0.00025983,"INCLINATION":87.9304,"RA_OF_ASC_NODE":333.4325,"ARG_OF_PERICENTER":105.4154,"MEAN_ANOMALY":254.7267,"EPHEMERIS_TYPE":0,"CLASSIFICATION_TYPE":"U","NORAD_CAT_ID":55828,"ELEMENT_SET_NO":999,"REV_AT_EPOCH":12208,"BSTAR":0.00018197924,"MEAN_MOTION_DOT":8.7e-7,"MEAN_MOTION_DDOT":0},{"OBJECT_NAME":"ONEWEB-0670","OBJECT_ID":"2023-029AK","EPOCH":"2025-08-25T08:13:08.340960","MEAN_MOTION":13.14501943,"ECCENTRICITY":0.00021167,"INCLINATION":87.9097,"RA_OF_ASC_NODE":348.6367,"ARG_OF_PERICENTER":90.7085,"MEAN_ANOMALY":269.4287,"EPHEMERIS_TYPE":0,"CLASSIFICATION_TYPE":"U","NORAD_CAT_ID":55829,"ELEMENT_SET_NO":999,"REV_AT_EPOCH":12056,"BSTAR":-0.00026180421,"MEAN_MOTION_DOT":-8.4e-7,"MEAN_MOTION_DDOT":0},{"OBJECT_NAME":"ONEWEB-0671","OBJECT_ID":"2023-029AL","EPOCH":"2025-08-25T07:15:09.793152","MEAN_MOTION":13.19726636,"ECCENTRICITY":0.00018831,"INCLINATION":87.9268,"RA_OF_ASC_NODE":3.8082,"ARG_OF_PERICENTER":92.4557,"MEAN_ANOMALY":267.6791,"EPHEMERIS_TYPE":0,"CLASSIFICATION_TYPE":"U","NORAD_CAT_ID":55830,"ELEMENT_SET_NO":999,"REV_AT_EPOCH":11987,"BSTAR":0.00023239933,"MEAN_MOTION_DOT":1.06e-6,"MEAN_MOTION_DDOT":0},{"OBJECT_NAME":"ONEWEB-0672","OBJECT_ID":"2023-029AM","EPOCH":"2025-08-25T08:08:18.338496","MEAN_MOTION":13.20772254,"ECCENTRICITY":0.00020628,"INCLINATION":87.9295,"RA_OF_ASC_NODE":333.4032,"ARG_OF_PERICENTER":107.6424,"MEAN_ANOMALY":252.4935,"EPHEMERIS_TYPE":0,"CLASSIFICATION_TYPE":"U","NORAD_CAT_ID":55831,"ELEMENT_SET_NO":999,"REV_AT_EPOCH":12209,"BSTAR":0.00010889646,"MEAN_MOTION_DOT":5.7e-7,"MEAN_MOTION_DDOT":0}]
